#dP2024  6 25  6  0  0.00000000      96 __u+U IGS20 EXT  IAC
## 2320 194400.00000000   900.00000000 60486 0.2500000000000
+   54   G02G03G04G05G06G07G08G09G10G11G12G13G14G15G16G17G18
+        G19G20G21G22G23G24G25G26G27G28G29G30G31G32R01R02R03
+        R04R05R07R08R09R11R12R13R14R15R16R17R18R19R20R21R22
+        R24R25R26  0  0  0  0  0  0  0  0  0  0  0  0  0  0
+          0  0  0  0  0  0  0  0  0  0  0  0  0  0  0  0  0
++         8 10  9 10  7  8  8  8 11  9  7  8  9  9  8  8 10
++         6  8  8  7  9  8  8 10  8  8  8  7 10  8  8  7  9
++         8 10  8  8  9  8  8  9  8  8  8  7  9  7  9  9  9
++         7  8  8  0  0  0  0  0  0  0  0  0  0  0  0  0  0
++         0  0  0  0  0  0  0  0  0  0  0  0  0  0  0  0  0
%c M  cc GPS ccc cccc cccc cccc cccc ccccc ccccc ccccc ccccc
%c cc cc ccc ccc cccc cccc cccc cccc ccccc ccccc ccccc ccccc
%f  0.0000000  0.000000000  0.00000000000  0.000000000000000
%f  0.0000000  0.000000000  0.00000000000  0.000000000000000
%i    0    0    0    0      0      0      0      0         0
%i    0    0    0    0      0      0      0      0         0
/* IAC                                ULTRA-RAPID PREDICTION
/* S/V CLOCKS ARE ALIGNED TO GNSS TIME                      
/* G:C1WC2W R:C1PC2P E:C1XC5X C:C2IC6I J:C1CC2S             
/* PCV:IGS20_2317 OL/AL:FES2004  NONE     YN ORB:CoN CLK:CoN
*  2024 06 26  3  0  0.00000000
PG02 -22811.584890 -13841.033319   1982.798569   -410.764401
PG03 -12935.473932  -8720.933540  21355.097675    430.769608
PG04 -21904.177569  -3278.921828  14777.692604    391.043044
PG05   6384.121733  22387.846985 -12889.331824   -177.619971
PG06  -5274.982105  14269.150051  21817.104155    197.502663
PG07 -20411.034247  -1192.682121 -16674.803135    -83.587827
PG08 -13531.562112 -10203.326520 -20655.737403    247.098787
PG09 -25234.601546   7120.124356   4331.334326    249.111272
PG10  10470.934535 -21805.474524 -10375.340366    -51.238470
PG11   7757.383363  20660.005557  14845.664910   -693.104511
PG12  11798.453049  11902.807747  20335.991617   -517.211156
PG13   4119.188432  14515.293751 -22073.550328    660.470752
PG14 -13179.119861  18690.321357 -13284.068980    434.294296
PG15  14680.608462   9161.370170 -20696.537952    174.257517
PG16  -1645.482351 -24174.033866 -10668.817100   -253.931859
PG17 -20891.713574  13635.643521   9765.851862    688.727199
PG18  19584.519686    487.863265 -18017.109201   -629.539505
PG19 -13643.189753  15361.691030  16431.041599    501.700258
PG20   2417.873816  26389.716263  -2679.960816    373.429804
PG21 -20983.586184 -16775.301880  -3272.637003    113.016066
PG22  -9963.469015  24099.828199  -5376.655882    -32.025306
PG23  14377.378336 -11536.437726 -19020.677576    259.229858
PG24  21820.192788  15514.545612  -1246.380875   -480.009674
PG25  15345.274366    367.650078  21328.554862    497.828066
PG26   4428.924125 -25756.603612   3288.641355    130.741087
PG27  -1509.413923 -15630.214073 -21661.817913    -29.432870
PG28   7461.950929 -13363.929788  21696.800958   -305.101141
PG29  25516.100149  -2574.227955   7097.937659   -592.519474
PG30 -13075.048509   9363.794916 -21014.896296   -368.149739
PG31  -3117.117686 -19144.328120  17752.836293   -227.178893
PG32  18467.703050 -15564.398707  11034.889732   -614.933897
PR01 -19013.195295   8766.045462  14560.557889     89.510755
PR02 -18444.973439  17576.383981  -1761.303960    -23.447181
PR03  -6954.658240  17337.681695 -17352.005598    102.755209
PR04   7712.555085   7426.503076 -23122.427849    242.777715
PR05  18445.393927  -6230.647287 -16457.129658    133.665095
PR07   6218.488806 -17024.657951  17966.725127     85.355184
PR08  -8112.861278  -7251.865091  23131.233271     -5.342457
PR09   5952.810432 -15569.255996  19364.067529    194.280093
PR11  -9917.761496 -21148.824001 -10258.652227     20.199905
PR12 -11773.810114  -3471.051901 -22329.172766     41.737678
PR13  -7180.656587  12979.498486 -20759.111398    -48.703251
PR14   3053.714711  24708.302220  -5480.794393     26.626876
PR15  10337.512515  20145.227218  11760.605048     78.472319
PR16  11687.934658   3649.884176  22386.082870     26.814247
PR17   4626.844680  12087.869526  21991.248864     99.150376
PR18  19256.495420  12032.881273  11585.961428    148.851955
PR19  24181.498027   7512.026654  -3123.031221   -281.657426
PR20  14586.803844  -4295.988612 -20466.257038   -115.108890
PR21  -4112.606538 -11965.524662 -22148.738107   -112.403144
PR22 -19689.828459 -12444.089536 -10387.287062     97.800560
PR24 -14047.079870   5633.701626  20537.321450    -61.353443
PR25  -4303.009826 -12581.359703 -21762.254740    -85.612809
PR26  -6996.272846  -8252.363218  23120.430417     -5.495333
*  2024 06 26  3 15  0.00000000
PG02 -22707.161122 -14028.432212   -867.159775   -410.757959
PG03 -12570.804022 -11111.333475  20461.304816    430.785311
PG04 -20283.386101  -4067.455804  16752.615952    391.050222
PG05   6093.302417  23680.422347 -10447.968932   -177.621116
PG06  -7260.525559  12752.028350  22193.380808    197.483139
PG07 -21793.568677  -2468.533535 -14775.935099    -83.579640
PG08 -11396.915810 -11248.102086 -21354.784634    247.114580
PG09 -24733.731582   6621.176256   7080.179482    249.124557
PG10  10482.869752 -20427.382463 -12854.603175    -51.246409
PG11   6268.144349  19628.201729  16815.966578   -693.111362
PG12  11250.720070  14155.267219  19190.980897   -517.213961
PG13   1725.368099  15128.330572 -21956.881646    660.473020
PG14 -13167.262668  17015.513439 -15393.821369    434.302451
PG15  12748.865685  10428.230120 -21365.887671    174.261376
PG16  -1179.257566 -25140.094888  -8065.783488   -253.922300
PG17 -21814.592549  13753.424536   7123.147339    688.721589
PG18  21040.758733   1792.347706 -16221.655242   -629.543618
PG19 -15426.683841  15700.577756  14394.401977    501.705129
PG20   2163.762634  26554.378439    149.100044    373.429473
PG21 -20411.404766 -16626.461922  -6005.912410    113.013755
PG22 -10012.908813  23256.753974  -8076.127331    -32.029612
PG23  14257.919434  -9280.885538 -20317.383041    259.238048
PG24  21450.294387  15634.033788  -4002.554379   -480.011620
PG25  15088.216738   2871.717878  21344.838397    497.828476
PG26   4766.333932 -25182.757848   6035.663026    130.735298
PG27    710.424643 -16509.767003 -20994.634153    -29.433926
PG28   9494.593873 -11930.613376  21737.913211   -305.115992
PG29  24664.255325  -2076.661308   9746.299867   -592.517832
PG30 -14953.564003   7859.771660 -20397.709483   -368.144037
PG31  -1314.801353 -17925.425338  19209.426393   -227.178674
PG32  19564.347710 -15785.196332   8467.976479   -614.932569
PR01 -17584.339395   7446.404802  16903.797486     89.511722
PR02 -18340.876407  17720.777380   1458.042649    -23.447380
PR03  -8311.126023  18822.761669 -15068.282472    102.755782
PR04   5652.230823   9403.110380 -22999.355110    242.779222
PR05  16794.292285  -4824.685476 -18562.657239    133.665778
PR07   7630.629952 -18550.657154  15768.708089     85.355895
PR08  -6081.069708  -9229.254256  23047.262894     -5.342758
PR09   6596.273237 -13181.573585  20864.302702    194.281949
PR11 -10328.024832 -22161.813850  -7292.354168     20.198754
PR12 -12492.964100  -6076.436950 -21360.979991     41.738040
PR13  -7827.561722  10428.203564 -21930.932150    -48.703617
PR14   2933.167353  23843.060914  -8525.701883     26.626859
PR15  10767.608785  21346.889081   8900.634079     78.471996
PR16  12424.317721   6246.566248  21389.621084     26.814508
PR17   1983.852285  11274.071891  22802.064794     99.153396
PR18  17775.237663  11410.409831  14276.588821    148.853663
PR19  24427.069876   7361.889258    115.302099   -281.658681
PR20  16920.748226  -3631.988607 -18721.394415   -115.109480
PR21  -1459.024636 -11126.970339 -22909.269912   -112.406062
PR22 -18347.379913 -11867.255367 -13146.852049     97.795838
PR24 -16404.248443   5035.629936  18875.477390    -61.354871
PR25  -1715.605648 -11683.777971 -22605.925328    -85.640582
PR26  -4987.946596 -10248.742316  22842.321944     -5.494591
EOF
